[{"OBJECT_NAME":"ONEWEB-0188","OBJECT_ID":"2021-031X","EPOCH":"2026-01-27T07:33:43.830432","MEAN_MOTION":13.14502065,"ECCENTRICITY":0.00017393,"INCLINATION":87.9018,"RA_OF_ASC_NODE":317.8175,"ARG_OF_PERICENTER":83.057,"MEAN_ANOMALY":277.0757,"EPHEMERIS_TYPE":0,"CLASSIFICATION_TYPE":"U","NORAD_CAT_ID":48231,"ELEMENT_SET_NO":999,"REV_AT_EPOCH":22963,"BSTAR":0.00020440271,"MEAN_MOTION_DOT":8.9e-7,"MEAN_MOTION_DDOT":0},{"OBJECT_NAME":"ONEWEB-0220","OBJECT_ID":"2021-031Y","EPOCH":"2026-01-27T06:41:12.535584","MEAN_MOTION":13.14502013,"ECCENTRICITY":0.00018515,"INCLINATION":87.9037,"RA_OF_ASC_NODE":317.7787,"ARG_OF_PERICENTER":84.5427,"MEAN_ANOMALY":275.5914,"EPHEMERIS_TYPE":0,"CLASSIFICATION_TYPE":"U","NORAD_CAT_ID":48232,"ELEMENT_SET_NO":999,"REV_AT_EPOCH":22989,"BSTAR":-0.00014415996,"MEAN_MOTION_DOT":-4.1e-7,"MEAN_MOTION_DDOT":0},{"OBJECT_NAME":"ONEWEB-0165","OBJECT_ID":"2021-031Z","EPOCH":"2026-01-27T07:22:19.616736","MEAN_MOTION":13.145034,"ECCENTRICITY":0.00014816,"INCLINATION":87.9021,"RA_OF_ASC_NODE":317.7927,"ARG_OF_PERICENTER":88.6924,"MEAN_ANOMALY":271.4375,"EPHEMERIS_TYPE":0,"CLASSIFICATION_TYPE":"U","NORAD_CAT_ID":48233,"ELEMENT_SET_NO":999,"REV_AT_EPOCH":22985,"BSTAR":-0.00030930811,"MEAN_MOTION_DOT":-1.02e-6,"MEAN_MOTION_DDOT":0},{"OBJECT_NAME":"ONEWEB-0199","OBJECT_ID":"2021-031AA","EPOCH":"2026-01-27T06:59:29.313600","MEAN_MOTION":13.14502858,"ECCENTRICITY":0.00017561,"INCLINATION":87.9032,"RA_OF_ASC_NODE":317.7754,"ARG_OF_PERICENTER":73.5619,"MEAN_ANOMALY":286.5704,"EPHEMERIS_TYPE":0,"CLASSIFICATION_TYPE":"U","NORAD_CAT_ID":48234,"ELEMENT_SET_NO":999,"REV_AT_EPOCH":22975,"BSTAR":-0.00056560114,"MEAN_MOTION_DOT":-1.97e-6,"MEAN_MOTION_DDOT":0},{"OBJECT_NAME":"ONEWEB-0203","OBJECT_ID":"2021-031AB","EPOCH":"2026-01-26T17:58:27.382656","MEAN_MOTION":13.14532989,"ECCENTRICITY":0.00018374,"INCLINATION":87.8994,"RA_OF_ASC_NODE":317.8869,"ARG_OF_PERICENTER":76.7576,"MEAN_ANOMALY":283.3758,"EPHEMERIS_TYPE":0,"CLASSIFICATION_TYPE":"U","NORAD_CAT_ID":48235,"ELEMENT_SET_NO":999,"REV_AT_EPOCH":22969,"BSTAR":0.0074351581,"MEAN_MOTION_DOT":2.771e-5,"MEAN_MOTION_DDOT":0},{"OBJECT_NAME":"ONEWEB-0197","OBJECT_ID":"2021-031AC","EPOCH":"2026-01-27T06:09:03.270240","MEAN_MOTION":13.14502626,"ECCENTRICITY":0.00020319,"INCLINATION":87.9032,"RA_OF_ASC_NODE":317.7816,"ARG_OF_PERICENTER":76.4893,"MEAN_ANOMALY":283.6463,"EPHEMERIS_TYPE":0,"CLASSIFICATION_TYPE":"U","NORAD_CAT_ID":48236,"ELEMENT_SET_NO":999,"REV_AT_EPOCH":22967,"BSTAR":0.00073689095,"MEAN_MOTION_DOT":2.86e-6,"MEAN_MOTION_DDOT":0},{"OBJECT_NAME":"ONEWEB-0194","OBJECT_ID":"2021-031AD","EPOCH":"2026-01-27T07:29:11.183136","MEAN_MOTION":13.14503921,"ECCENTRICITY":0.00016061,"INCLINATION":87.903,"RA_OF_ASC_NODE":317.7875,"ARG_OF_PERICENTER":71.395,"MEAN_ANOMALY":288.7354,"EPHEMERIS_TYPE":0,"CLASSIFICATION_TYPE":"U","NORAD_CAT_ID":48237,"ELEMENT_SET_NO":999,"REV_AT_EPOCH":22985,"BSTAR":0.00022066655,"MEAN_MOTION_DOT":9.5e-7,"MEAN_MOTION_DDOT":0},{"OBJECT_NAME":"ONEWEB-0193","OBJECT_ID":"2021-031AE","EPOCH":"2026-01-26T08:07:05.457504","MEAN_MOTION":13.14503276,"ECCENTRICITY":0.00015865,"INCLINATION":87.9027,"RA_OF_ASC_NODE":317.9744,"ARG_OF_PERICENTER":62.0718,"MEAN_ANOMALY":298.0573,"EPHEMERIS_TYPE":0,"CLASSIFICATION_TYPE":"U","NORAD_CAT_ID":48238,"ELEMENT_SET_NO":999,"REV_AT_EPOCH":22967,"BSTAR":0.00054519719,"MEAN_MOTION_DOT":2.15e-6,"MEAN_MOTION_DDOT":0},{"OBJECT_NAME":"ONEWEB-0191","OBJECT_ID":"2021-031AF","EPOCH":"2026-01-27T06:18:23.234688","MEAN_MOTION":13.14502232,"ECCENTRICITY":0.00017779,"INCLINATION":87.9035,"RA_OF_ASC_NODE":317.7838,"ARG_OF_PERICENTER":76.0166,"MEAN_ANOMALY":284.1161,"EPHEMERIS_TYPE":0,"CLASSIFICATION_TYPE":"U","NORAD_CAT_ID":48239,"ELEMENT_SET_NO":999,"REV_AT_EPOCH":22965,"BSTAR":0.00063549017,"MEAN_MOTION_DOT":2.48e-6,"MEAN_MOTION_DDOT":0},{"OBJECT_NAME":"ONEWEB-0195","OBJECT_ID":"2021-031AG","EPOCH":"2026-01-27T07:34:52.514976","MEAN_MOTION":13.1450251,"ECCENTRICITY":0.0001575,"INCLINATION":87.9031,"RA_OF_ASC_NODE":317.7708,"ARG_OF_PERICENTER":90.7797,"MEAN_ANOMALY":269.3513,"EPHEMERIS_TYPE":0,"CLASSIFICATION_TYPE":"U","NORAD_CAT_ID":48240,"ELEMENT_SET_NO":999,"REV_AT_EPOCH":22964,"BSTAR":0.00041371533,"MEAN_MOTION_DOT":1.66e-6,"MEAN_MOTION_DDOT":0},{"OBJECT_NAME":"ONEWEB-0201","OBJECT_ID":"2021-031AH","EPOCH":"2026-01-27T07:17:55.983552","MEAN_MOTION":13.14502021,"ECCENTRICITY":0.00019462,"INCLINATION":87.9022,"RA_OF_ASC_NODE":317.8056,"ARG_OF_PERICENTER":87.0622,"MEAN_ANOMALY":273.073,"EPHEMERIS_TYPE":0,"CLASSIFICATION_TYPE":"U","NORAD_CAT_ID":48241,"ELEMENT_SET_NO":999,"REV_AT_EPOCH":22987,"BSTAR":-0.00041619332,"MEAN_MOTION_DOT":-1.42e-6,"MEAN_MOTION_DDOT":0},{"OBJECT_NAME":"ONEWEB-0207","OBJECT_ID":"2021-031AJ","EPOCH":"2026-01-27T06:49:12.606816","MEAN_MOTION":13.14502393,"ECCENTRICITY":0.00020216,"INCLINATION":87.9035,"RA_OF_ASC_NODE":317.7773,"ARG_OF_PERICENTER":81.2731,"MEAN_ANOMALY":278.8627,"EPHEMERIS_TYPE":0,"CLASSIFICATION_TYPE":"U","NORAD_CAT_ID":48242,"ELEMENT_SET_NO":999,"REV_AT_EPOCH":22978,"BSTAR":-0.00038630225,"MEAN_MOTION_DOT":-1.3e-6,"MEAN_MOTION_DDOT":0},{"OBJECT_NAME":"ONEWEB-0208","OBJECT_ID":"2021-031AK","EPOCH":"2026-01-27T06:22:56.531712","MEAN_MOTION":13.14501927,"ECCENTRICITY":0.00015667,"INCLINATION":87.9031,"RA_OF_ASC_NODE":317.7941,"ARG_OF_PERICENTER":86.4234,"MEAN_ANOMALY":273.7075,"EPHEMERIS_TYPE":0,"CLASSIFICATION_TYPE":"U","NORAD_CAT_ID":48243,"ELEMENT_SET_NO":999,"REV_AT_EPOCH":22979,"BSTAR":0.00027770598,"MEAN_MOTION_DOT":1.16e-6,"MEAN_MOTION_DDOT":0},{"OBJECT_NAME":"ONEWEB-0200","OBJECT_ID":"2021-031AL","EPOCH":"2026-01-27T07:20:01.308480","MEAN_MOTION":13.14501766,"ECCENTRICITY":0.0001745,"INCLINATION":87.903,"RA_OF_ASC_NODE":317.7753,"ARG_OF_PERICENTER":81.8839,"MEAN_ANOMALY":278.2488,"EPHEMERIS_TYPE":0,"CLASSIFICATION_TYPE":"U","NORAD_CAT_ID":48244,"ELEMENT_SET_NO":999,"REV_AT_EPOCH":22972,"BSTAR":4.6602413e-5,"MEAN_MOTION_DOT":3.0e-7,"MEAN_MOTION_DDOT":0},{"OBJECT_NAME":"ONEWEB-0217","OBJECT_ID":"2021-031AM","EPOCH":"2026-01-27T05:53:15.520128","MEAN_MOTION":13.14501917,"ECCENTRICITY":0.00015624,"INCLINATION":87.9034,"RA_OF_ASC_NODE":317.7856,"ARG_OF_PERICENTER":89.33,"MEAN_ANOMALY":270.8009,"EPHEMERIS_TYPE":0,"CLASSIFICATION_TYPE":"U","NORAD_CAT_ID":48245,"ELEMENT_SET_NO":999,"REV_AT_EPOCH":22966,"BSTAR":0.00062431835,"MEAN_MOTION_DOT":2.44e-6,"MEAN_MOTION_DDOT":0},{"OBJECT_NAME":"ONEWEB-0211","OBJECT_ID":"2021-045A","EPOCH":"2026-01-27T04:07:22.221408","MEAN_MOTION":13.16152864,"ECCENTRICITY":0.00011138,"INCLINATION":87.9003,"RA_OF_ASC_NODE":287.2619,"ARG_OF_PERICENTER":90.64,"MEAN_ANOMALY":269.4859,"EPHEMERIS_TYPE":0,"CLASSIFICATION_TYPE":"U","NORAD_CAT_ID":48767,"ELEMENT_SET_NO":999,"REV_AT_EPOCH":22589,"BSTAR":-0.0058919235,"MEAN_MOTION_DOT":-2.224e-5,"MEAN_MOTION_DDOT":0}]
