ONEWEB-0188             
1 48231U 21031X   26027.31509063  .00000089  00000+0  20440-3 0  9998
2 48231  87.9018 317.8175 0001739  83.0570 277.0757 13.14502065229632
ONEWEB-0220             
1 48232U 21031Y   26027.27861731 -.00000041  00000+0 -14416-3 0  9993
2 48232  87.9037 317.7787 0001851  84.5427 275.5914 13.14502013229893
ONEWEB-0165             
1 48233U 21031Z   26027.30717149 -.00000102  00000+0 -30931-3 0  9999
2 48233  87.9021 317.7927 0001481  88.6924 271.4375 13.14503400229852
ONEWEB-0199             
1 48234U 21031AA  26027.29131150 -.00000197  00000+0 -56560-3 0  9990
2 48234  87.9032 317.7754 0001756  73.5619 286.5704 13.14502858229750
ONEWEB-0203             
1 48235U 21031AB  26026.74892804  .00002771  00000+0  74352-2 0  9996
2 48235  87.8994 317.8869 0001837  76.7576 283.3758 13.14532989229697
ONEWEB-0197             
1 48236U 21031AC  26027.25628785  .00000286  00000+0  73689-3 0  9991
2 48236  87.9032 317.7816 0002031  76.4893 283.6463 13.14502626229678
ONEWEB-0194             
1 48237U 21031AD  26027.31193499  .00000095  00000+0  22067-3 0  9990
2 48237  87.9030 317.7875 0001606  71.3950 288.7354 13.14503921229851
ONEWEB-0193             
1 48238U 21031AE  26026.33825761  .00000215  00000+0  54520-3 0  9999
2 48238  87.9027 317.9744 0001586  62.0718 298.0573 13.14503276229671
ONEWEB-0191             
1 48239U 21031AF  26027.26276892  .00000248  00000+0  63549-3 0  9995
2 48239  87.9035 317.7838 0001777  76.0166 284.1161 13.14502232229655
ONEWEB-0195             
1 48240U 21031AG  26027.31588559  .00000166  00000+0  41372-3 0  9998
2 48240  87.9031 317.7708 0001575  90.7797 269.3513 13.14502510229642
ONEWEB-0201             
1 48241U 21031AH  26027.30412018 -.00000142  00000+0 -41619-3 0  9994
2 48241  87.9022 317.8056 0001946  87.0622 273.0730 13.14502021229873
ONEWEB-0207             
1 48242U 21031AJ  26027.28417369 -.00000130  00000+0 -38630-3 0  9992
2 48242  87.9035 317.7773 0002021  81.2731 278.8627 13.14502393229785
ONEWEB-0208             
1 48243U 21031AK  26027.26593208  .00000116  00000+0  27771-3 0  9994
2 48243  87.9031 317.7941 0001566  86.4234 273.7075 13.14501927229791
ONEWEB-0200             
1 48244U 21031AL  26027.30557070  .00000030  00000+0  46602-4 0  9997
2 48244  87.9030 317.7753 0001745  81.8839 278.2488 13.14501766229723
ONEWEB-0217             
1 48245U 21031AM  26027.24531852  .00000244  00000+0  62432-3 0  9996
2 48245  87.9034 317.7856 0001562  89.3300 270.8009 13.14501917229663
ONEWEB-0211             
1 48767U 21045A   26027.17178497 -.00002224  00000+0 -58919-2 0  9990
2 48767  87.9003 287.2619 0001113  90.6400 269.4859 13.16152864225897
